NORAD_CAT_ID,OBJECT_NAME,OBJECT_TYPE,EPOCH,MEAN_MOTION,ECCENTRICITY,INCLINATION,RA_OF_ASC_NODE,ARG_OF_PERICENTER,MEAN_ANOMALY,BSTAR,MEAN_MOTION_DOT,MEAN_MOTION_DDOT,TLE_LINE0,TLE_LINE1,TLE_LINE2,SEMIMAJOR_AXIS,PERIOD,APOGEE,PERIGEE,DECAYED
52348.0,STARLINK-3829,PAYLOAD,2024-04-09 06:30:18,15.08840645,0.0001557,53.2177,98.9309,100.2957,259.8211,5.1273e-05,5.28e-06,0.0,0 STARLINK-3829,1 52348U 22045T   24100.27104877  .00000528  00000-0  51273-4 0  9995,2 52348  53.2177  98.9309 0001557 100.2957 259.8211 15.08840645110190,6917.878,95.438,540.821,538.666,0.0
52348.0,STARLINK-3829,PAYLOAD,2024-04-10 04:45:42,15.08838524,0.0001479,53.2175,94.7679,100.0476,260.0683,8.44e-05,1.055e-05,0.0,0 STARLINK-3829,1 52348U 22045T   24101.19840967  .00001055  00000-0  84400-4 0  9998,2 52348  53.2175  94.7679 0001479 100.0476 260.0683 15.08838524110335,6917.885,95.438,540.773,538.727,0.0
52348.0,STARLINK-3829,PAYLOAD,2024-04-10 09:31:51,15.08840024,0.0001427,53.2174,93.8769,94.9431,265.1724,7.2356e-05,8.64e-06,0.0,0 STARLINK-3829,1 52348U 22045T   24101.39712936  .00000864  00000-0  72356-4 0  9998,2 52348  53.2174  93.8769 0001427  94.9431 265.1724 15.08840024110362,6917.88,95.438,540.732,538.758,0.0
52348.0,STARLINK-3829,PAYLOAD,2024-04-11 06:11:53,15.08834956,0.0001342,53.2168,90.0113,93.3004,266.8142,3.5752e-05,2.81e-06,0.0,0 STARLINK-3829,1 52348U 22045T   24102.25825508  .00000281  00000-0  35752-4 0  9996,2 52348  53.2168  90.0113 0001342  93.3004 266.8142 15.08834956110495,6917.896,95.438,540.689,538.832,0.0
52348.0,STARLINK-3829,PAYLOAD,2024-04-11 09:22:39,15.08835094,0.0001339,53.2169,89.417,93.6796,266.4349,2.5107e-05,1.12e-06,0.0,0 STARLINK-3829,1 52348U 22045T   24102.39073558  .00000112  00000-0  25107-4 0  9997,2 52348  53.2169  89.4170 0001339  93.6796 266.4349 15.08835094110510,6917.895,95.438,540.687,538.834,0.0
52348.0,STARLINK-3829,PAYLOAD,2024-04-11 15:44:11,15.08837676,0.0001347,53.217,88.2277,94.0281,266.0865,3.3068e-05,2.38e-06,0.0,0 STARLINK-3829,1 52348U 22045T   24102.65569440  .00000238  00000-0  33068-4 0  9990,2 52348  53.2170  88.2277 0001347  94.0281 266.0865 15.08837676110551,6917.887,95.438,540.684,538.821,0.0
52348.0,STARLINK-3829,PAYLOAD,2024-04-12 09:13:26,15.08838212,0.0001346,53.2171,84.9565,93.5976,266.517,6.9811e-05,8.23e-06,0.0,0 STARLINK-3829,1 52348U 22045T   24103.38433466  .00000823  00000-0  69811-4 0  9994,2 52348  53.2171  84.9565 0001346  93.5976 266.5170 15.08838212110662,6917.886,95.438,540.682,538.82,0.0
52348.0,STARLINK-3829,PAYLOAD,2024-04-13 07:28:50,15.08835524,0.0001333,53.2175,80.7932,90.6081,269.5064,5.9951e-05,6.66e-06,0.0,0 STARLINK-3829,1 52348U 22045T   24104.31170004  .00000666  00000-0  59951-4 0  9993,2 52348  53.2175  80.7932 0001333  90.6081 269.5064 15.08835524110803,6917.894,95.438,540.681,538.837,0.0
52348.0,STARLINK-3829,PAYLOAD,2024-04-14 05:44:14,15.08839915,0.0001348,53.218,76.6268,91.8311,268.2836,6.8746e-05,8.06e-06,0.0,0 STARLINK-3829,1 52348U 22045T   24105.23905976  .00000806  00000-0  68746-4 0  9997,2 52348  53.2180  76.6268 0001348  91.8311 268.2836 15.08839915110946,6917.881,95.438,540.678,538.813,0.0
52348.0,STARLINK-3829,PAYLOAD,2024-04-15 03:59:38,15.08844372,0.0001462,53.2182,72.4652,82.5079,277.6079,0.00014914,2.087e-05,0.0,0 STARLINK-3829,1 52348U 22045T   24106.16641651  .00002087  00000-0  14914-3 0  9997,2 52348  53.2182  72.4652 0001462  82.5079 277.6079 15.08844372111086,6917.867,95.437,540.743,538.721,0.0
52348.0,STARLINK-3829,PAYLOAD,2024-04-15 07:10:24,15.08847152,0.0001487,53.2186,71.8684,83.3694,276.7468,0.00017033,2.424e-05,0.0,0 STARLINK-3829,1 52348U 22045T   24106.29889417  .00002424  00000-0  17033-3 0  9995,2 52348  53.2186  71.8684 0001487  83.3694 276.7468 15.08847152111101,6917.859,95.437,540.752,538.695,0.0
52348.0,STARLINK-3829,PAYLOAD,2024-04-16 03:50:25,15.0884149,0.0001591,53.2178,68.004,94.4124,265.705,5.2866e-05,5.53e-06,0.0,0 STARLINK-3829,1 52348U 22045T   24107.16001743  .00000553  00000-0  52866-4 0  9995,2 52348  53.2178  68.0040 0001591  94.4124 265.7050 15.08841490111231,6917.876,95.437,540.841,538.64,0.0
52348.0,STARLINK-3829,PAYLOAD,2024-04-16 07:01:11,15.08845978,0.0001574,53.2182,67.4084,104.3738,255.7429,0.00010584,1.397e-05,0.0,0 STARLINK-3829,1 52348U 22045T   24107.29249460  .00001397  00000-0  10584-3 0  9996,2 52348  53.2182  67.4084 0001574 104.3738 255.7429 15.08845978111256,6917.862,95.437,540.816,538.638,0.0
52348.0,STARLINK-3829,PAYLOAD,2024-04-16 14:58:06,15.08854684,0.0001609,53.2188,65.9215,103.2005,256.9167,0.0002173,3.173e-05,0.0,0 STARLINK-3829,1 52348U 22045T   24107.62368930  .00003173  00000-0  21730-3 0  9996,2 52348  53.2188  65.9215 0001609 103.2005 256.9167 15.08854684111307,6917.836,95.437,540.814,538.587,0.0
52348.0,STARLINK-3829,PAYLOAD,2024-04-17 02:05:48,15.08845245,0.0001564,53.2171,63.843,93.0415,267.0756,3.6874e-05,2.99e-06,0.0,0 STARLINK-3829,1 52348U 22045T   24108.08737240  .00000299  00000-0  36874-4 0  9993,2 52348  53.2171  63.8430 0001564  93.0415 267.0756 15.08845245111373,6917.864,95.437,540.811,538.647,0.0
52348.0,STARLINK-3829,PAYLOAD,2024-04-17 06:51:58,15.08852247,0.0001733,53.2174,62.9479,106.4863,253.632,0.00019788,2.864e-05,0.0,0 STARLINK-3829,1 52348U 22045T   24108.28608861  .00002864  00000-0  19788-3 0  9995,2 52348  53.2174  62.9479 0001733 106.4863 253.6320 15.08852247111405,6917.843,95.437,540.907,538.509,0.0
52348.0,STARLINK-3829,PAYLOAD,2024-04-18 01:56:36,15.08831871,0.0001106,53.2174,59.3798,120.8017,239.3084,-1.3595e-05,-5.04e-06,0.0,0 STARLINK-3829,1 52348U 22045T   24109.08097766 -.00000504  00000-0 -13595-4 0  9992,2 52348  53.2174  59.3798 0001106 120.8017 239.3084 15.08831871111525,6917.905,95.438,540.535,539.005,0.0
52348.0,STARLINK-3829,PAYLOAD,2024-04-19 03:22:47,15.08836078,0.0001455,53.2163,54.6239,117.5991,242.5149,0.00012511,1.704e-05,0.0,0 STARLINK-3829,1 52348U 22045T   24110.14082430  .00001704  00000-0  12511-3 0  9990,2 52348  53.2163  54.6239 0001455 117.5991 242.5149 15.08836078111681,6917.892,95.438,540.764,538.751,0.0
52348.0,STARLINK-3829,PAYLOAD,2024-04-19 06:33:33,15.08835716,0.0001605,53.2169,54.0284,125.2344,234.8799,0.0003237,4.867e-05,0.0,0 STARLINK-3829,1 52348U 22045T   24110.27330617  .00004867  00000-0  32370-3 0  9995,2 52348  53.2169  54.0284 0001605 125.2344 234.8799 15.08835716111702,6917.893,95.438,540.869,538.648,0.0
52348.0,STARLINK-3829,PAYLOAD,2024-04-19 19:16:38,15.08848674,0.0001533,53.2178,51.6488,123.3448,236.7691,0.00060037,9.282e-05,0.0,0 STARLINK-3829,1 52348U 22045T   24110.80322460  .00009282  00000-0  60037-3 0  9998,2 52348  53.2178  51.6488 0001533 123.3448 236.7691 15.08848674111782,6917.854,95.437,540.779,538.658,0.0
52348.0,STARLINK-3829,PAYLOAD,2024-04-20 04:48:56,15.0887227,0.0001422,53.218,49.8649,109.5896,250.5249,0.0010219,0.00016027,0.0,0 STARLINK-3829,1 52348U 22045T   24111.20065743  .00016027  00000-0  10219-2 0  9992,2 52348  53.2180  49.8649 0001422 109.5896 250.5249 15.08872270111842,6917.782,95.436,540.63,538.663,0.0
52348.0,STARLINK-3829,PAYLOAD,2024-04-21 04:39:43,15.08832779,0.0001562,53.2178,45.4047,87.8788,272.2383,-0.00031259,-5.258e-05,0.0,0 STARLINK-3829,1 52348U 22045T   24112.19425778 -.00005258  00000-0 -31259-3 0  9993,2 52348  53.2178  45.4047 0001562  87.8788 272.2383 15.08832779111992,6917.902,95.438,540.848,538.687,0.0
52348.0,STARLINK-3829,PAYLOAD,2024-04-21 18:58:12,15.0883794,0.0001748,53.2181,42.7293,78.4046,281.7142,0.00096996,0.00015182,0.0,0 STARLINK-3829,1 52348U 22045T   24112.79042514  .00015182  00000-0  96996-3 0  9996,2 52348  53.2181  42.7293 0001748  78.4046 281.7142 15.08837940112082,6917.887,95.438,540.961,538.542,0.0
52348.0,STARLINK-3829,PAYLOAD,2024-04-22 04:30:31,15.08849174,0.0001695,53.2177,40.9431,76.9528,283.1654,0.001029,0.00016131,0.0,0 STARLINK-3829,1 52348U 22045T   24113.18786493  .00016131  00000-0  10290-2 0  9998,2 52348  53.2177  40.9431 0001695  76.9528 283.1654 15.08849174112143,6917.852,95.437,540.89,538.545,0.0
52348.0,STARLINK-3829,PAYLOAD,2024-04-22 18:49:00,15.08828785,7.87e-05,53.2183,38.2687,76.4604,283.6476,0.00013248,1.821e-05,0.0,0 STARLINK-3829,1 52348U 22045T   24113.78403103  .00001821  00000-0  13248-3 0  9995,2 52348  53.2183  38.2687 0000787  76.4604 283.6476 15.08828785112236,6917.915,95.438,540.324,539.235,0.0
52348.0,STARLINK-3829,PAYLOAD,2024-04-23 04:21:19,15.08836119,0.0001651,53.2181,36.4832,110.4319,249.685,0.00027561,4.101e-05,0.0,0 STARLINK-3829,1 52348U 22045T   24114.18147256  .00004101  00000-0  27561-3 0  9991,2 52348  53.2181  36.4832 0001651 110.4319 249.6850 15.08836119112293,6917.892,95.438,540.899,538.615,0.0
52348.0,STARLINK-3829,PAYLOAD,2024-04-23 21:50:33,15.088444,0.0001551,53.2184,33.2134,110.2981,249.8178,0.00058047,8.963e-05,0.0,0 STARLINK-3829,1 52348U 22045T   24114.91011407  .00008963  00000-0  58047-3 0  9993,2 52348  53.2184  33.2134 0001551 110.2981 249.8178 15.08844400112408,6917.867,95.437,540.805,538.659,0.0
52348.0,STARLINK-3829,PAYLOAD,2024-04-24 04:12:06,15.08854302,0.0001493,53.2186,32.022,104.8849,255.2309,0.00071858,0.00011171,0.0,0 STARLINK-3829,1 52348U 22045T   24115.17507122  .00011171  00000-0  71858-3 0  9996,2 52348  53.2186  32.0220 0001493 104.8849 255.2309 15.08854302112443,6917.837,95.437,540.735,538.669,0.0
52348.0,STARLINK-3829,PAYLOAD,2024-04-24 21:41:20,15.08848824,0.0002244,53.2181,28.7452,135.1239,224.9935,-1.622e-05,-5.47e-06,0.0,0 STARLINK-3829,1 52348U 22045T   24115.90371030 -.00000547  00000-0 -16220-4 0  9994,2 52348  53.2181  28.7452 0002244 135.1239 224.9935 15.08848824112554,6917.853,95.437,541.271,538.166,0.0
52348.0,STARLINK-3829,PAYLOAD,2024-04-25 04:02:53,15.08839979,0.0001283,53.2184,27.5638,119.1058,241.0063,0.00017625,2.518e-05,0.0,0 STARLINK-3829,1 52348U 22045T   24116.16867485  .00002518  00000-0  17625-3 0  9994,2 52348  53.2184  27.5638 0001283 119.1058 241.0063 15.08839979112590,6917.88,95.438,540.633,538.858,0.0
